STARLINK-30161          
1 57476U 23107V   26017.93259188  .00002213  00000+0  17880-3 0  9997
2 57476  43.0033 254.3002 0001081 262.0878  97.9842 15.02545492137482
STARLINK-30176          
1 57477U 23107W   26017.93036835  .00003595  00000+0  28102-3 0  9993
2 57477  43.0005 254.2835 0001442 261.5631  98.5048 15.02544101137488
JUPITER 3 (ECHOSTAR 24) 
1 57479U 23108A   26016.94113563 -.00000133  00000+0  00000+0 0  9999
2 57479   0.0104  45.6314 0001177 242.7117  71.6295  1.00271366  9131
FENGYUN 3F              
1 57490U 23111A   26017.95205049  .00000061  00000+0  49240-4 0  9992
2 57490  98.7028  90.6524 0001294 113.4912 246.6400 14.19904028127543
GALAXY 37 (G-37)        
1 57493U 23112A   26017.91525162  .00000064  00000+0  00000+0 0  9992
2 57493   0.0117  60.6064 0001881 244.0365  15.1579  1.00270895  9035
STARLINK-30154          
1 57495U 23113A   26017.81883237  .00000259  00000+0  34201-4 0  9995
2 57495  43.0045 294.1095 0000844 267.9078  92.1668 15.02537234135848
STARLINK-30145          
1 57496U 23113B   26017.93514252 -.00000186  00000+0  12979-5 0  9996
2 57496  43.0053 293.2769 0001147 266.3273  93.7438 15.02532262135919
STARLINK-30226          
1 57497U 23113C   26017.46646545  .00000272  00000+0  35227-4 0  9991
2 57497  43.0038 295.7912 0001175 264.8955  95.1754 15.02539536135852
STARLINK-30203          
1 57498U 23113D   26017.12409896  .00003121  00000+0  24606-3 0  9995
2 57498  43.0018 297.5170 0000747 305.8868  54.1904 15.02530968135920
STARLINK-30169          
1 57499U 23113E   26017.42025938  .00000848  00000+0  77843-4 0  9995
2 57499  43.0039 283.5759 0001055 267.5549  92.5173 15.02542655135936
STARLINK-30164          
1 57500U 23113F   26017.11411734 -.00000469  00000+0 -19681-4 0  9994
2 57500  43.0054 297.4350 0001045 305.3226  54.7518 15.02527955135905
STARLINK-30072          
1 57501U 23113G   26017.17391452  .00000155  00000+0  26532-4 0  9998
2 57501  43.0034 297.0166 0000626 273.6063  86.4708 15.02538300135803
STARLINK-30228          
1 57502U 23113H   26018.00002315  .00459344  89077-4  12814-2 0  9999
2 57502  42.9711 208.3749 0028338 286.5489 151.1814 15.92141366  5941
STARLINK-30230          
1 57503U 23113J   26017.44981159  .00000257  00000+0  34070-4 0  9998
2 57503  43.0025 295.6487 0001280 262.4416  97.6281 15.02542287135843
STARLINK-30213          
1 57504U 23113K   26017.17070133  .00000873  00000+0  79677-4 0  9996
2 57504  43.0038 297.8416 0000674 261.8795  98.1971 15.02540116135901
STARLINK-30227          
1 57505U 23113L   26017.94205555  .00000242  00000+0  32949-4 0  9991
2 57505  43.0044 280.3079 0001059 262.2581  97.8141 15.02537265136173
STARLINK-30212          
1 57506U 23113M   26017.83215178  .00001351  00000+0  11509-3 0  9992
2 57506  43.0046 294.2097 0001112 259.8017 100.2700 15.02537335135847
STARLINK-30219          
1 57507U 23113N   26017.16404093 -.00002386  00000+0 -16155-3 0  9998
2 57507  43.0059 297.8103 0001223 275.9792  84.0911 15.02553814135901
STARLINK-30074          
1 57508U 23113P   26017.17724445 -.00000045  00000+0  11763-4 0  9996
2 57508  43.0050 297.0415 0001041 263.9063  96.1661 15.02537333135709
STARLINK-30082          
1 57509U 23113Q   26017.81548794 -.00000624  00000+0 -31094-4 0  9992
2 57509  43.0025 294.0993 0000874 269.8744  90.1999 15.02565306136007
STARLINK-30153          
1 57510U 23113R   26017.81217515  .00001143  00000+0  99690-4 0  9999
2 57510  43.0030 294.0851 0000979 267.9082  92.1648 15.02534216135893
STARLINK-30147          
1 57511U 23113S   26017.48977043  .00000978  00000+0  87421-4 0  9996
2 57511  43.0057 295.9539 0001175 260.6892  99.3818 15.02543355135953
STARLINK-30157          
1 57512U 23113T   26017.96554850  .00000178  00000+0  28269-4 0  9994
2 57512  43.0043 266.9523 0001077 259.0943 100.9778 15.02535931136338
STARLINK-30168          
1 57513U 23113U   26017.49309384 -.00001663  00000+0 -10807-3 0  9993
2 57513  43.0044 295.9490 0000794 252.7279 107.3476 15.02540504135799
STARLINK-30231          
1 57514U 23113V   26017.94179975  .00000158  00000+0  26754-4 0  9990
2 57514  43.0035 293.3126 0000748 273.2484  86.8273 15.02538660136026
STARLINK-30081          
1 57515U 23113W   26017.46313576  .00000475  00000+0  50226-4 0  9998
2 57515  43.0048 295.7644 0001037 266.8336  93.2387 15.02538856135954
STARLINK-30149          
1 57516U 23113X   26017.85201130  .00001220  00000+0  10539-3 0  9995
2 57516  43.0037 293.5171 0001123 265.7536  94.3178 15.02526947135914
COSMOS 2569 [GLONASS-K2]
1 57517U 23114A   26017.62196958  .00000002  00000+0  00000+0 0  9998
2 57517  65.2133  77.7004 0011865 288.2644  71.6825  2.13104014 19057
HJ-2F                   
1 57519U 23116A   26017.96242187  .00009410  00000+0  40049-3 0  9998
2 57519  97.3863  25.9985 0007068 162.7815 197.3663 15.23188604135916
STARLINK-30259          
1 57521U 23115A   26017.98533182  .00000072  00000+0  20413-4 0  9999
2 57521  43.0051 280.5438 0000968 263.0153  97.0579 15.02534287135900
