OBJECT_NAME,OBJECT_ID,EPOCH,MEAN_MOTION,ECCENTRICITY,INCLINATION,RA_OF_ASC_NODE,ARG_OF_PERICENTER,MEAN_ANOMALY,EPHEMERIS_TYPE,CLASSIFICATION_TYPE,NORAD_CAT_ID,ELEMENT_SET_NO,REV_AT_EPOCH,BSTAR,MEAN_MOTION_DOT,MEAN_MOTION_DDOT
STARLINK-30161,2023-107V,2026-01-17T22:22:55.938432,15.02545492,.00010814,43.0033,254.3002,262.0878,97.9842,0,U,57476,999,13748,.1787967E-3,.2213E-4,0
STARLINK-30176,2023-107W,2026-01-17T22:19:43.825440,15.02544101,.00014421,43.0005,254.2835,261.5631,98.5048,0,U,57477,999,13748,.2810187E-3,.3595E-4,0
JUPITER 3 (ECHOSTAR 24),2023-108A,2026-01-16T22:35:14.118432,1.00271366,.0001177,0.0104,45.6314,242.7117,71.6295,0,U,57479,999,913,0,-.133E-5,0
FENGYUN 3F,2023-111A,2026-01-17T22:50:57.162336,14.19904028,.0001294,98.7028,90.6524,113.4912,246.6400,0,U,57490,999,12754,.49240491E-4,.61E-6,0
GALAXY 37 (G-37),2023-112A,2026-01-17T21:57:57.739968,1.00270895,.00018817,0.0117,60.6064,244.0365,15.1579,0,U,57493,999,903,0,.64E-6,0
STARLINK-30154,2023-113A,2026-01-17T19:39:07.116768,15.02537234,.00008441,43.0045,294.1095,267.9078,92.1668,0,U,57495,999,13584,.34201219E-4,.259E-5,0
STARLINK-30145,2023-113B,2026-01-17T22:26:36.313728,15.02532262,.00011472,43.0053,293.2769,266.3273,93.7438,0,U,57496,999,13591,.1297879E-5,-.186E-5,0
STARLINK-30226,2023-113C,2026-01-17T11:11:42.614880,15.02539536,.00011756,43.0038,295.7912,264.8955,95.1754,0,U,57497,999,13585,.35226545E-4,.272E-5,0
STARLINK-30203,2023-113D,2026-01-17T02:58:42.150144,15.02530968,.00007473,43.0018,297.5170,305.8868,54.1904,0,U,57498,999,13592,.24606191E-3,.3121E-4,0
STARLINK-30169,2023-113E,2026-01-17T10:05:10.410432,15.02542655,.00010553,43.0039,283.5759,267.5549,92.5173,0,U,57499,999,13593,.77842628E-4,.848E-5,0
STARLINK-30164,2023-113F,2026-01-17T02:44:19.738176,15.02527955,.00010459,43.0054,297.4350,305.3226,54.7518,0,U,57500,999,13590,-.19680554E-4,-.469E-5,0
STARLINK-30072,2023-113G,2026-01-17T04:10:26.214528,15.02538300,.00006262,43.0034,297.0166,273.6063,86.4708,0,U,57501,999,13580,.26532439E-4,.155E-5,0
STARLINK-30228,2023-113H,2026-01-18T00:00:02.000160,15.92141366,.00283384,42.9711,208.3749,286.5489,151.1814,0,U,57502,999,594,.12813577E-2,.459344E-2,.89077454E-4
STARLINK-30230,2023-113J,2026-01-17T10:47:43.721376,15.02542287,.00012802,43.0025,295.6487,262.4416,97.6281,0,U,57503,999,13584,.34070409E-4,.257E-5,0
STARLINK-30213,2023-113K,2026-01-17T04:05:48.594912,15.02540116,.00006748,43.0038,297.8416,261.8795,98.1971,0,U,57504,999,13590,.79677028E-4,.873E-5,0
STARLINK-30227,2023-113L,2026-01-17T22:36:33.599520,15.02537265,.00010593,43.0044,280.3079,262.2581,97.8141,0,U,57505,999,13617,.3294853E-4,.242E-5,0
STARLINK-30212,2023-113M,2026-01-17T19:58:17.913792,15.02537335,.00011122,43.0046,294.2097,259.8017,100.2700,0,U,57506,999,13584,.1150928E-3,.1351E-4,0
STARLINK-30219,2023-113N,2026-01-17T03:56:13.136352,15.02553814,.00012237,43.0059,297.8103,275.9792,84.0911,0,U,57507,999,13590,-.16155207E-3,-.2386E-4,0
STARLINK-30074,2023-113P,2026-01-17T04:15:13.920480,15.02537333,.00010418,43.0050,297.0415,263.9063,96.1661,0,U,57508,999,13570,.11763281E-4,-.45E-6,0
STARLINK-30082,2023-113Q,2026-01-17T19:34:18.158016,15.02565306,.00008747,43.0025,294.0993,269.8744,90.1999,0,U,57509,999,13600,-.3109369E-4,-.624E-5,0
STARLINK-30153,2023-113R,2026-01-17T19:29:31.932960,15.02534216,.00009793,43.0030,294.0851,267.9082,92.1648,0,U,57510,999,13589,.99690232E-4,.1143E-4,0
STARLINK-30147,2023-113S,2026-01-17T11:45:16.165152,15.02543355,.00011756,43.0057,295.9539,260.6892,99.3818,0,U,57511,999,13595,.87420653E-4,.978E-5,0
STARLINK-30157,2023-113T,2026-01-17T23:10:23.390400,15.02535931,.00010778,43.0043,266.9523,259.0943,100.9778,0,U,57512,999,13633,.28268507E-4,.178E-5,0
STARLINK-30168,2023-113U,2026-01-17T11:50:03.307776,15.02540504,.00007944,43.0044,295.9490,252.7279,107.3476,0,U,57513,999,13579,-.1080696E-3,-.1663E-4,0
STARLINK-30231,2023-113V,2026-01-17T22:36:11.498400,15.02538660,.00007485,43.0035,293.3126,273.2484,86.8273,0,U,57514,999,13602,.26754373E-4,.158E-5,0
STARLINK-30081,2023-113W,2026-01-17T11:06:54.929664,15.02538856,.00010373,43.0048,295.7644,266.8336,93.2387,0,U,57515,999,13595,.50225766E-4,.475E-5,0
STARLINK-30149,2023-113X,2026-01-17T20:26:53.776320,15.02526947,.00011239,43.0037,293.5171,265.7536,94.3178,0,U,57516,999,13591,.10538961E-3,.122E-4,0
COSMOS 2569 [GLONASS-K2],2023-114A,2026-01-17T14:55:38.171712,2.13104014,.00118658,65.2133,77.7004,288.2644,71.6825,0,U,57517,999,1905,0,.2E-7,0
HJ-2F,2023-116A,2026-01-17T23:05:53.249568,15.23188604,.00070682,97.3863,25.9985,162.7815,197.3663,0,U,57519,999,13591,.4004872E-3,.941E-4,0
STARLINK-30259,2023-115A,2026-01-17T23:38:52.669248,15.02534287,.00009688,43.0051,280.5438,263.0153,97.0579,0,U,57521,999,13590,.20413203E-4,.72E-6,0
